{
  "type": "FeatureCollection",
  "features": [
    {
      "type": "Feature",
      "properties": {
        "norad_id": 37846,
        "name": "GSAT0101 (GALILEO-PFM)",
        "group": "gnss",
        "lat": -52.39003429407099,
        "lon": -135.92838640495094,
        "alt_km": 23224.01067924869,
        "timestamp": "2025-12-16T05:49:09.456500+00:00",
        "meta_object_name": "GSAT0101 (GALILEO-PFM)",
        "meta_object_id": "2011-060A",
        "meta_epoch": "2025-12-15T20:00:41.819904",
        "meta_mean_motion": 1.70475823,
        "meta_eccentricity": 0.00030775,
        "meta_inclination": 57.052,
        "meta_ra_of_asc_node": 346.7358,
        "meta_arg_of_pericenter": 316.7426,
        "meta_mean_anomaly": 43.2514,
        "meta_ephemeris_type": 0,
        "meta_classification_type": "U",
        "meta_norad_cat_id": 37846,
        "meta_element_set_no": 999,
        "meta_rev_at_epoch": 8799,
        "meta_bstar": 0,
        "meta_mean_motion_dot": -8.2e-07,
        "meta_mean_motion_ddot": 0,
        "tle_line1": "1 37846U 11060A   25349.83381736 -.00000082  00000+0  00000+0 0  9997",
        "tle_line2": "2 37846  57.0520 346.7358 0003077 316.7426  43.2514  1.70475823 87990"
      },
      "geometry": {
        "type": "Point",
        "coordinates": [
          -135.92838640495094,
          -52.39003429407099
        ]
      }
    },
    {
      "type": "Feature",
      "properties": {
        "norad_id": 37847,
        "name": "GSAT0102 (GALILEO-FM2)",
        "group": "gnss",
        "lat": -48.80663266036207,
        "lon": -61.10065657905862,
        "alt_km": 23213.013823542267,
        "timestamp": "2025-12-16T05:49:09.456512+00:00",
        "meta_object_name": "GSAT0102 (GALILEO-FM2)",
        "meta_object_id": "2011-060B",
        "meta_epoch": "2025-12-15T11:17:12.789024",
        "meta_mean_motion": 1.70476038,
        "meta_eccentricity": 0.0005041,
        "meta_inclination": 57.0528,
        "meta_ra_of_asc_node": 346.7461,
        "meta_arg_of_pericenter": 310.8731,
        "meta_mean_anomaly": 231.4829,
        "meta_ephemeris_type": 0,
        "meta_classification_type": "U",
        "meta_norad_cat_id": 37847,
        "meta_element_set_no": 999,
        "meta_rev_at_epoch": 8799,
        "meta_bstar": 0,
        "meta_mean_motion_dot": -8.3e-07,
        "meta_mean_motion_ddot": 0,
        "tle_line1": "1 37847U 11060B   25349.47028691 -.00000083  00000+0  00000+0 0  9997",
        "tle_line2": "2 37847  57.0528 346.7461 0005041 310.8731 231.4829  1.70476038 87990"
      },
      "geometry": {
        "type": "Point",
        "coordinates": [
          -61.10065657905862,
          -48.80663266036207
        ]
      }
    },
    {
      "type": "Feature",
      "properties": {
        "norad_id": 37867,
        "name": "COSMOS 2476 (744)",
        "group": "gnss",
        "lat": -31.254578535211955,
        "lon": -84.6444757910157,
        "alt_km": 19076.15468386021,
        "timestamp": "2025-12-16T05:49:09.456524+00:00",
        "meta_object_name": "COSMOS 2476 (744)",
        "meta_object_id": "2011-064A",
        "meta_epoch": "2025-12-15T11:25:46.908768",
        "meta_mean_motion": 2.1310152,
        "meta_eccentricity": 0.00240578,
        "meta_inclination": 65.1644,
        "meta_ra_of_asc_node": 79.0785,
        "meta_arg_of_pericenter": 234.0946,
        "meta_mean_anomaly": 112.9924,
        "meta_ephemeris_type": 0,
        "meta_classification_type": "U",
        "meta_norad_cat_id": 37867,
        "meta_element_set_no": 999,
        "meta_rev_at_epoch": 10984,
        "meta_bstar": 0,
        "meta_mean_motion_dot": -5.6e-07,
        "meta_mean_motion_ddot": 0,
        "tle_line1": "1 37867U 11064A   25349.47623737 -.00000056  00000+0  00000+0 0  9995",
        "tle_line2": "2 37867  65.1644  79.0785 0024057 234.0946 112.9924  2.13101520109846"
      },
      "geometry": {
        "type": "Point",
        "coordinates": [
          -84.6444757910157,
          -31.254578535211955
        ]
      }
    },
    {
      "type": "Feature",
      "properties": {
        "norad_id": 37868,
        "name": "COSMOS 2477 (745)",
        "group": "gnss",
        "lat": 32.18563056388032,
        "lon": 96.04892800192151,
        "alt_km": 19177.2852582306,
        "timestamp": "2025-12-16T05:49:09.456536+00:00",
        "meta_object_name": "COSMOS 2477 (745)",
        "meta_object_id": "2011-064B",
        "meta_epoch": "2025-12-15T06:06:12.573216",
        "meta_mean_motion": 2.1310289,
        "meta_eccentricity": 0.00211455,
        "meta_inclination": 65.1707,
        "meta_ra_of_asc_node": 79.1637,
        "meta_arg_of_pericenter": 234.5873,
        "meta_mean_anomaly": 123.1925,
        "meta_ephemeris_type": 0,
        "meta_classification_type": "U",
        "meta_norad_cat_id": 37868,
        "meta_element_set_no": 999,
        "meta_rev_at_epoch": 10983,
        "meta_bstar": 0,
        "meta_mean_motion_dot": -5.6e-07,
        "meta_mean_motion_ddot": 0,
        "tle_line1": "1 37868U 11064B   25349.25431219 -.00000056  00000+0  00000+0 0  9994",
        "tle_line2": "2 37868  65.1707  79.1637 0021145 234.5873 123.1925  2.13102890109838"
      },
      "geometry": {
        "type": "Point",
        "coordinates": [
          96.04892800192151,
          32.18563056388032
        ]
      }
    },
    {
      "type": "Feature",
      "properties": {
        "norad_id": 37869,
        "name": "COSMOS 2475 (743)",
        "group": "gnss",
        "lat": -7.194048875364717,
        "lon": 75.81291530875409,
        "alt_km": 19146.909971996185,
        "timestamp": "2025-12-16T05:49:09.456548+00:00",
        "meta_object_name": "COSMOS 2475 (743)",
        "meta_object_id": "2011-064C",
        "meta_epoch": "2025-12-15T18:53:44.988864",
        "meta_mean_motion": 2.13101578,
        "meta_eccentricity": 0.00263291,
        "meta_inclination": 65.178,
        "meta_ra_of_asc_node": 79.1657,
        "meta_arg_of_pericenter": 248.6854,
        "meta_mean_anomaly": 113.9368,
        "meta_ephemeris_type": 0,
        "meta_classification_type": "U",
        "meta_norad_cat_id": 37869,
        "meta_element_set_no": 999,
        "meta_rev_at_epoch": 10986,
        "meta_bstar": 0,
        "meta_mean_motion_dot": -5.6e-07,
        "meta_mean_motion_ddot": 0,
        "tle_line1": "1 37869U 11064C   25349.78732626 -.00000056  00000+0  00000+0 0  9999",
        "tle_line2": "2 37869  65.1780  79.1657 0026329 248.6854 113.9368  2.13101578109869"
      },
      "geometry": {
        "type": "Point",
        "coordinates": [
          75.81291530875409,
          -7.194048875364717
        ]
      }
    },
    {
      "type": "Feature",
      "properties": {
        "norad_id": 37948,
        "name": "BEIDOU-2 IGSO-5 (C10)",
        "group": "gnss",
        "lat": -5.388329115765463,
        "lon": -91.07540158503951,
        "alt_km": 36080.46744163055,
        "timestamp": "2025-12-16T05:49:09.456560+00:00",
        "meta_object_name": "BEIDOU-2 IGSO-5 (C10)",
        "meta_object_id": "2011-073A",
        "meta_epoch": "2025-12-12T18:24:47.608416",
        "meta_mean_motion": 1.00291151,
        "meta_eccentricity": 0.01101752,
        "meta_inclination": 48.0199,
        "meta_ra_of_asc_node": 273.857,
        "meta_arg_of_pericenter": 222.308,
        "meta_mean_anomaly": 314.7254,
        "meta_ephemeris_type": 0,
        "meta_classification_type": "U",
        "meta_norad_cat_id": 37948,
        "meta_element_set_no": 999,
        "meta_rev_at_epoch": 5126,
        "meta_bstar": 0,
        "meta_mean_motion_dot": -2.21e-06,
        "meta_mean_motion_ddot": 0,
        "tle_line1": "1 37948U 11073A   25346.76721769 -.00000221  00000+0  00000+0 0  9992",
        "tle_line2": "2 37948  48.0199 273.8570 0110175 222.3080 314.7254  1.00291151 51268"
      },
      "geometry": {
        "type": "Point",
        "coordinates": [
          -91.07540158503951,
          -5.388329115765463
        ]
      }
    },
    {
      "type": "Feature",
      "properties": {
        "norad_id": 37951,
        "name": "LUCH 5A (SDCM/PRN 140)",
        "group": "gnss",
        "lat": -8.234025585498976,
        "lon": -20.475441138640647,
        "alt_km": 35782.12688251502,
        "timestamp": "2025-12-16T05:49:09.456579+00:00",
        "meta_object_name": "LUCH 5A (SDCM/PRN 140)",
        "meta_object_id": "2011-074B",
        "meta_epoch": "2025-12-15T22:44:34.969344",
        "meta_mean_motion": 1.00275624,
        "meta_eccentricity": 0.00053572,
        "meta_inclination": 8.2878,
        "meta_ra_of_asc_node": 76.5392,
        "meta_arg_of_pericenter": 183.0637,
        "meta_mean_anomaly": 333.4936,
        "meta_ephemeris_type": 0,
        "meta_classification_type": "U",
        "meta_norad_cat_id": 37951,
        "meta_element_set_no": 999,
        "meta_rev_at_epoch": 5121,
        "meta_bstar": 0,
        "meta_mean_motion_dot": -3.1e-07,
        "meta_mean_motion_ddot": 0,
        "tle_line1": "1 37951U 11074B   25349.94762696 -.00000031  00000+0  00000+0 0  9993",
        "tle_line2": "2 37951   8.2878  76.5392 0005357 183.0637 333.4936  1.00275624 51217"
      },
      "geometry": {
        "type": "Point",
        "coordinates": [
          -20.475441138640647,
          -8.234025585498976
        ]
      }
    }
  ]
}